[
  {
    "OBJECT_NAME": "UMKA 1 (RS40S)",
    "OBJECT_ID": "2023-091G",
    "EPOCH": "2025-05-31T21:21:58.817376",
    "MEAN_MOTION": 15.15256663,
    "ECCENTRICITY": 0.0014417,
    "INCLINATION": 97.558,
    "RA_OF_ASC_NODE": 207.318,
    "ARG_OF_PERICENTER": 11.6542,
    "MEAN_ANOMALY": 348.5021,
    "EPHEMERIS_TYPE": 0,
    "CLASSIFICATION_TYPE": "U",
    "NORAD_CAT_ID": 57172,
    "ELEMENT_SET_NO": 999,
    "REV_AT_EPOCH": 10616,
    "BSTAR": 0.00030565,
    "MEAN_MOTION_DOT": 5.695e-05,
    "MEAN_MOTION_DDOT": 0
  },
  {
    "OBJECT_NAME": "CUBESX-HSE 3 (RS42S)",
    "OBJECT_ID": "2023-091N",
    "EPOCH": "2025-05-31T20:04:08.453280",
    "MEAN_MOTION": 15.20569056,
    "ECCENTRICITY": 0.0013099,
    "INCLINATION": 97.5609,
    "RA_OF_ASC_NODE": 209.549,
    "ARG_OF_PERICENTER": 0.622,
    "MEAN_ANOMALY": 359.5029,
    "EPHEMERIS_TYPE": 0,
    "CLASSIFICATION_TYPE": "U",
    "NORAD_CAT_ID": 57178,
    "ELEMENT_SET_NO": 999,
    "REV_AT_EPOCH": 10628,
    "BSTAR": 0.00044062,
    "MEAN_MOTION_DOT": 9.604e-05,
    "MEAN_MOTION_DDOT": 0
  },
  {
    "OBJECT_NAME": "MONITOR-3 (RS58S)",
    "OBJECT_ID": "2023-091Q",
    "EPOCH": "2025-05-31T20:29:31.001856",
    "MEAN_MOTION": 15.18937135,
    "ECCENTRICITY": 0.0013821,
    "INCLINATION": 97.5603,
    "RA_OF_ASC_NODE": 208.8558,
    "ARG_OF_PERICENTER": 2.6041,
    "MEAN_ANOMALY": 357.5262,
    "EPHEMERIS_TYPE": 0,
    "CLASSIFICATION_TYPE": "U",
    "NORAD_CAT_ID": 57180,
    "ELEMENT_SET_NO": 999,
    "REV_AT_EPOCH": 10624,
    "BSTAR": 0.0003773,
    "MEAN_MOTION_DOT": 7.832e-05,
    "MEAN_MOTION_DDOT": 0
  },
  {
    "OBJECT_NAME": "MONITOR-4 (RS57S)",
    "OBJECT_ID": "2023-091S",
    "EPOCH": "2025-05-31T15:40:09.530976",
    "MEAN_MOTION": 15.18979853,
    "ECCENTRICITY": 0.0013907,
    "INCLINATION": 97.5598,
    "RA_OF_ASC_NODE": 208.6126,
    "ARG_OF_PERICENTER": 3.9387,
    "MEAN_ANOMALY": 356.1954,
    "EPHEMERIS_TYPE": 0,
    "CLASSIFICATION_TYPE": "U",
    "NORAD_CAT_ID": 57182,
    "ELEMENT_SET_NO": 999,
    "REV_AT_EPOCH": 10621,
    "BSTAR": 0.00037168,
    "MEAN_MOTION_DOT": 7.724e-05,
    "MEAN_MOTION_DDOT": 0
  },
  {
    "OBJECT_NAME": "MONITOR-2 (RS39S)",
    "OBJECT_ID": "2023-091U",
    "EPOCH": "2025-05-31T19:40:10.581024",
    "MEAN_MOTION": 15.14299175,
    "ECCENTRICITY": 0.0012175,
    "INCLINATION": 97.5609,
    "RA_OF_ASC_NODE": 207.531,
    "ARG_OF_PERICENTER": 3.2466,
    "MEAN_ANOMALY": 356.8842,
    "EPHEMERIS_TYPE": 0,
    "CLASSIFICATION_TYPE": "U",
    "NORAD_CAT_ID": 57184,
    "ELEMENT_SET_NO": 999,
    "REV_AT_EPOCH": 10615,
    "BSTAR": 0.00026863,
    "MEAN_MOTION_DOT": 4.859e-05,
    "MEAN_MOTION_DDOT": 0
  },
  {
    "OBJECT_NAME": "SVYATOBOR 1 (RS60S)",
    "OBJECT_ID": "2023-091X",
    "EPOCH": "2025-05-31T19:42:47.739168",
    "MEAN_MOTION": 15.18806913,
    "ECCENTRICITY": 0.001058,
    "INCLINATION": 97.5609,
    "RA_OF_ASC_NODE": 209.5309,
    "ARG_OF_PERICENTER": 355.9327,
    "MEAN_ANOMALY": 4.1819,
    "EPHEMERIS_TYPE": 0,
    "CLASSIFICATION_TYPE": "U",
    "NORAD_CAT_ID": 57187,
    "ELEMENT_SET_NO": 999,
    "REV_AT_EPOCH": 10628,
    "BSTAR": 0.00035008,
    "MEAN_MOTION_DOT": 7.227e-05,
    "MEAN_MOTION_DDOT": 0
  },
  {
    "OBJECT_NAME": "VIZARD-METEO (RS38S)",
    "OBJECT_ID": "2023-091Z",
    "EPOCH": "2025-05-31T20:40:07.775040",
    "MEAN_MOTION": 15.23310978,
    "ECCENTRICITY": 0.0008691,
    "INCLINATION": 97.5595,
    "RA_OF_ASC_NODE": 211.3957,
    "ARG_OF_PERICENTER": 348.8003,
    "MEAN_ANOMALY": 11.3038,
    "EPHEMERIS_TYPE": 0,
    "CLASSIFICATION_TYPE": "U",
    "NORAD_CAT_ID": 57189,
    "ELEMENT_SET_NO": 999,
    "REV_AT_EPOCH": 10641,
    "BSTAR": 0.00043186,
    "MEAN_MOTION_DOT": 0.00010191,
    "MEAN_MOTION_DDOT": 0
  },
  {
    "OBJECT_NAME": "NANOZOND 1 (RS49S)",
    "OBJECT_ID": "2023-091AA",
    "EPOCH": "2025-05-31T20:27:46.950336",
    "MEAN_MOTION": 15.35220699,
    "ECCENTRICITY": 0.0005153,
    "INCLINATION": 97.5551,
    "RA_OF_ASC_NODE": 215.1371,
    "ARG_OF_PERICENTER": 343.3549,
    "MEAN_ANOMALY": 16.7524,
    "EPHEMERIS_TYPE": 0,
    "CLASSIFICATION_TYPE": "U",
    "NORAD_CAT_ID": 57190,
    "ELEMENT_SET_NO": 999,
    "REV_AT_EPOCH": 10667,
    "BSTAR": 0.00069661,
    "MEAN_MOTION_DOT": 0.00023791,
    "MEAN_MOTION_DDOT": 0
  },
  {
    "OBJECT_NAME": "POLYTECH-UNIVERSE 3 (RS46S)",
    "OBJECT_ID": "2023-091AB",
    "EPOCH": "2025-05-31T19:40:52.943808",
    "MEAN_MOTION": 15.14375743,
    "ECCENTRICITY": 0.0017346,
    "INCLINATION": 97.5578,
    "RA_OF_ASC_NODE": 207.0803,
    "ARG_OF_PERICENTER": 17.4903,
    "MEAN_ANOMALY": 342.6922,
    "EPHEMERIS_TYPE": 0,
    "CLASSIFICATION_TYPE": "U",
    "NORAD_CAT_ID": 57191,
    "ELEMENT_SET_NO": 999,
    "REV_AT_EPOCH": 10614,
    "BSTAR": 0.00027565,
    "MEAN_MOTION_DOT": 5.008e-05,
    "MEAN_MOTION_DDOT": 0
  },
  {
    "OBJECT_NAME": "UTMN 2 (RS27S)",
    "OBJECT_ID": "2023-091AP",
    "EPOCH": "2025-05-31T19:50:06.204480",
    "MEAN_MOTION": 15.21582372,
    "ECCENTRICITY": 0.0009338,
    "INCLINATION": 97.5598,
    "RA_OF_ASC_NODE": 210.6703,
    "ARG_OF_PERICENTER": 351.1761,
    "MEAN_ANOMALY": 8.9309,
    "EPHEMERIS_TYPE": 0,
    "CLASSIFICATION_TYPE": "U",
    "NORAD_CAT_ID": 57203,
    "ELEMENT_SET_NO": 999,
    "REV_AT_EPOCH": 10636,
    "BSTAR": 0.00040962,
    "MEAN_MOTION_DOT": 9.182e-05,
    "MEAN_MOTION_DDOT": 0
  },
  {
    "OBJECT_NAME": "ARCCUBE 1 (RS25S)",
    "OBJECT_ID": "2023-091AR",
    "EPOCH": "2025-05-31T20:16:22.518048",
    "MEAN_MOTION": 15.44595062,
    "ECCENTRICITY": 0.0003707,
    "INCLINATION": 97.5464,
    "RA_OF_ASC_NODE": 217.1315,
    "ARG_OF_PERICENTER": 329.7971,
    "MEAN_ANOMALY": 30.3063,
    "EPHEMERIS_TYPE": 0,
    "CLASSIFICATION_TYPE": "U",
    "NORAD_CAT_ID": 57205,
    "ELEMENT_SET_NO": 999,
    "REV_AT_EPOCH": 10682,
    "BSTAR": 0.00093682,
    "MEAN_MOTION_DOT": 0.00043669,
    "MEAN_MOTION_DDOT": 0
  },
  {
    "OBJECT_NAME": "KUZGTU 1 (RS47S)",
    "OBJECT_ID": "2023-091AV",
    "EPOCH": "2025-05-31T20:37:08.737824",
    "MEAN_MOTION": 15.1996941,
    "ECCENTRICITY": 0.0013228,
    "INCLINATION": 97.5584,
    "RA_OF_ASC_NODE": 209.1365,
    "ARG_OF_PERICENTER": 2.5025,
    "MEAN_ANOMALY": 357.6273,
    "EPHEMERIS_TYPE": 0,
    "CLASSIFICATION_TYPE": "U",
    "NORAD_CAT_ID": 57217,
    "ELEMENT_SET_NO": 999,
    "REV_AT_EPOCH": 10627,
    "BSTAR": 0.00039179,
    "MEAN_MOTION_DOT": 8.383e-05,
    "MEAN_MOTION_DDOT": 0
  },
  {
    "OBJECT_NAME": "SONATE-2",
    "OBJECT_ID": "2024-043Q",
    "EPOCH": "2025-05-31T15:11:03.258240",
    "MEAN_MOTION": 15.35457721,
    "ECCENTRICITY": 0.0012254,
    "INCLINATION": 97.5131,
    "RA_OF_ASC_NODE": 282.6334,
    "ARG_OF_PERICENTER": 142.789,
    "MEAN_ANOMALY": 217.4204,
    "EPHEMERIS_TYPE": 0,
    "CLASSIFICATION_TYPE": "U",
    "NORAD_CAT_ID": 59112,
    "ELEMENT_SET_NO": 999,
    "REV_AT_EPOCH": 6896,
    "BSTAR": 0.00047018,
    "MEAN_MOTION_DOT": 0.00016169,
    "MEAN_MOTION_DDOT": 0
  },
  {
    "OBJECT_NAME": "MESAT1",
    "OBJECT_ID": "2024-125G",
    "EPOCH": "2025-05-31T14:00:47.140416",
    "MEAN_MOTION": 15.35772408,
    "ECCENTRICITY": 0.0019508,
    "INCLINATION": 97.2802,
    "RA_OF_ASC_NODE": 3.3045,
    "ARG_OF_PERICENTER": 165.2247,
    "MEAN_ANOMALY": 194.9572,
    "EPHEMERIS_TYPE": 0,
    "CLASSIFICATION_TYPE": "U",
    "NORAD_CAT_ID": 60209,
    "ELEMENT_SET_NO": 999,
    "REV_AT_EPOCH": 5057,
    "BSTAR": 0.00044885,
    "MEAN_MOTION_DOT": 0.00015649,
    "MEAN_MOTION_DDOT": 0
  }
]