UMKA 1 (RS40S)          
1 57172U 23091G   25151.89026409  .00005695  00000+0  30565-3 0  9995
2 57172  97.5580 207.3180 0014417  11.6542 348.5021 15.15256663106162
CUBESX-HSE 3 (RS42S)    
1 57178U 23091N   25151.83620895  .00009604  00000+0  44062-3 0  9995
2 57178  97.5609 209.5490 0013099   0.6220 359.5029 15.20569056106286
MONITOR-3 (RS58S)       
1 57180U 23091Q   25151.85383104  .00007832  00000+0  37730-3 0  9994
2 57180  97.5603 208.8558 0013821   2.6041 357.5262 15.18937135106243
MONITOR-4 (RS57S)       
1 57182U 23091S   25151.65288809  .00007724  00000+0  37168-3 0  9995
2 57182  97.5598 208.6126 0013907   3.9387 356.1954 15.18979853106212
MONITOR-2 (RS39S)       
1 57184U 23091U   25151.81956691  .00004859  00000+0  26863-3 0  9992
2 57184  97.5609 207.5310 0012175   3.2466 356.8842 15.14299175106151
SVYATOBOR 1 (RS60S)     
1 57187U 23091X   25151.82138587  .00007227  00000+0  35008-3 0  9995
2 57187  97.5609 209.5309 0010580 355.9327   4.1819 15.18806913106284
VIZARD-METEO (RS38S)    
1 57189U 23091Z   25151.86120110  .00010191  00000+0  43186-3 0  9994
2 57189  97.5595 211.3957 0008691 348.8003  11.3038 15.23310978106417
NANOZOND 1 (RS49S)      
1 57190U 23091AA  25151.85262674  .00023791  00000+0  69661-3 0  9993
2 57190  97.5551 215.1371 0005153 343.3549  16.7524 15.35220699106678
POLYTECH-UNIVERSE 3 (R*)
1 57191U 23091AB  25151.82005722  .00005008  00000+0  27565-3 0  9998
2 57191  97.5578 207.0803 0017346  17.4903 342.6922 15.14375743106141
UTMN 2 (RS27S)          
1 57203U 23091AP  25151.82646070  .00009182  00000+0  40962-3 0  9992
2 57203  97.5598 210.6703 0009338 351.1761   8.9309 15.21582372106369
ARCCUBE 1 (RS25S)       
1 57205U 23091AR  25151.84470507  .00043669  00000+0  93682-3 0  9991
2 57205  97.5464 217.1315 0003707 329.7971  30.3063 15.44595062106824
KUZGTU 1 (RS47S)        
1 57217U 23091AV  25151.85912891  .00008383  00000+0  39179-3 0  9997
2 57217  97.5584 209.1365 0013228   2.5025 357.6273 15.19969410106272
SONATE-2                
1 59112U 24043Q   25151.63267660  .00016169  00000+0  47018-3 0  9996
2 59112  97.5131 282.6334 0012254 142.7890 217.4204 15.35457721 68968
MESAT1                  
1 60209U 24125G   25151.58387894  .00015649  00000+0  44885-3 0  9993
2 60209  97.2802   3.3045 0019508 165.2247 194.9572 15.35772408 50578
